[{"OBJECT_NAME":"COSMOS 2467","OBJECT_ID":"2010-043A","EPOCH":"2026-03-09T18:34:12.543456","MEAN_MOTION":12.42982911,"ECCENTRICITY":0.00013401,"INCLINATION":82.4563,"RA_OF_ASC_NODE":127.2242,"ARG_OF_PERICENTER":69.5907,"MEAN_ANOMALY":69.6906,"EPHEMERIS_TYPE":0,"CLASSIFICATION_TYPE":"U","NORAD_CAT_ID":37152,"ELEMENT_SET_NO":999,"REV_AT_EPOCH":70315,"BSTAR":-1.4013224e-5,"MEAN_MOTION_DOT":8.0e-8,"MEAN_MOTION_DDOT":0},{"OBJECT_NAME":"SL-8 R\/B","OBJECT_ID":"1971-041J","EPOCH":"2026-03-09T23:44:25.343808","MEAN_MOTION":12.32227484,"ECCENTRICITY":0.00670429,"INCLINATION":74.0247,"RA_OF_ASC_NODE":264.2104,"ARG_OF_PERICENTER":286.9956,"MEAN_ANOMALY":183.9309,"EPHEMERIS_TYPE":0,"CLASSIFICATION_TYPE":"U","NORAD_CAT_ID":5218,"ELEMENT_SET_NO":999,"REV_AT_EPOCH":68259,"BSTAR":-0.00038445116,"MEAN_MOTION_DOT":-6.2e-7,"MEAN_MOTION_DDOT":0}]
